[{"OBJECT_NAME":"STARLINK-4081","OBJECT_ID":"2022-053E","EPOCH":"2026-03-09T22:51:36.665280","MEAN_MOTION":15.0884594,"ECCENTRICITY":0.00012385,"INCLINATION":53.2172,"RA_OF_ASC_NODE":152.9403,"ARG_OF_PERICENTER":88.7615,"MEAN_ANOMALY":271.3519,"EPHEMERIS_TYPE":0,"CLASSIFICATION_TYPE":"U","NORAD_CAT_ID":52660,"ELEMENT_SET_NO":999,"REV_AT_EPOCH":21115,"BSTAR":-1.3811053e-5,"MEAN_MOTION_DOT":-5.08e-6,"MEAN_MOTION_DDOT":0},{"OBJECT_NAME":"NOAA 17 DEB","OBJECT_ID":"2002-032AW","EPOCH":"2026-03-09T06:42:02.833344","MEAN_MOTION":15.0155296,"ECCENTRICITY":0.0036655,"INCLINATION":98.9692,"RA_OF_ASC_NODE":191.508,"ARG_OF_PERICENTER":264.8759,"MEAN_ANOMALY":94.8277,"EPHEMERIS_TYPE":0,"CLASSIFICATION_TYPE":"U","NORAD_CAT_ID":48713,"ELEMENT_SET_NO":999,"REV_AT_EPOCH":26502,"BSTAR":0.0031489084,"MEAN_MOTION_DOT":0.00041514,"MEAN_MOTION_DDOT":0}]
